     2.11           N: GPS NAV DATA                         RINEX VERSION / TYPE
teqc  2019Feb25                         20221121 12:25:01UTCPGM / RUN BY / DATE
OSX ker:10.11.6|Core i5|gcc 4.3 -m64|OSX ker:10.10+|=+      COMMENT
    4.6566D-09  1.4901D-08 -5.9605D-08 -1.1921D-07          ION ALPHA
    8.1920D+04  8.1920D+04 -6.5536D+04 -5.2429D+05          ION BETA
   -5.587935447693D-09-1.776356839400D-14    61440     1540 DELTA-UTC: A0,A1,T,W
                                                            END OF HEADER
 3 09  7 11  0  0  0.0 4.183799028397D-04 5.229594535194D-12 0.000000000000D+00
    8.200000000000D+01-3.306250000000D+01 5.275576891810D-09 1.509379113984D+00
   -1.586973667145D-06 1.204306271393D-02 1.151859760284D-05 5.153649488449D+03
    5.184000000000D+05-3.185123205185D-07-2.312250584507D+00 7.450580596924D-08
    9.264695130483D-01 1.435625000000D+02 9.121558573528D-01-8.389635176266D-09
    2.371527355062D-10 1.000000000000D+00 1.539000000000D+03 0.000000000000D+00
    2.000000000000D+00 0.000000000000D+00-4.190951585770D-09 8.200000000000D+01
    5.112180000000D+05 4.000000000000D+00
 6 09  7 11  0  0  0.0 1.886105164886D-04 1.136868377216D-11 0.000000000000D+00
    9.000000000000D+01-1.234375000000D+01 5.057710673951D-09-2.372660458260D+00
   -5.140900611877D-07 5.976715474389D-03 1.097656786442D-05 5.153706918716D+03
    5.184000000000D+05 1.862645149231D-08-2.244299792300D+00 1.136213541031D-07
    9.338790673088D-01 1.510312500000D+02-1.318250149907D+00-8.059621429869D-09
    3.475144753728D-10 1.000000000000D+00 1.539000000000D+03 0.000000000000D+00
    2.000000000000D+00 0.000000000000D+00-4.656612873077D-09 9.000000000000D+01
    5.112180000000D+05 4.000000000000D+00
 7 09  7 11  0  0  0.0 1.547159627080D-05-6.821210263297D-13 0.000000000000D+00
    9.700000000000D+01 2.331250000000D+01 4.613406452611D-09 1.391248961846D-01
    1.292675733566D-06 2.816013060510D-03 2.684071660042D-06 5.153659769058D+03
    5.184000000000D+05 9.313225746155D-09 1.991979732809D+00 7.450580596924D-09
    9.677435288710D-01 3.298125000000D+02 2.878202309708D+00-8.352133614175D-09
    2.746542975968D-10 1.000000000000D+00 1.539000000000D+03 0.000000000000D+00
    2.000000000000D+00 0.000000000000D+00-1.071020960808D-08 9.700000000000D+01
    5.112180000000D+05 4.000000000000D+00
25 09  7 11  0  0  0.0 5.025439895689D-04 1.750777300913D-11 0.000000000000D+00
    8.500000000000D+01 3.943750000000D+01 4.504116185947D-09-1.691627275866D+00
    2.386048436165D-06 1.129419496283D-02 3.261491656303D-06 5.153645706177D+03
    5.184000000000D+05-1.844018697739D-07 1.897520342744D+00 2.589076757431D-07
    9.699292733103D-01 3.240937500000D+02-1.208825290757D+00-8.267844388905D-09
    3.217991185107D-10 1.000000000000D+00 1.539000000000D+03 0.000000000000D+00
    2.800000000000D+00 0.000000000000D+00-7.450580596924D-09 8.500000000000D+01
    5.112180000000D+05 4.000000000000D+00
21 09  7 11  0  0  0.0 3.480818122625D-06-2.160049916711D-12 0.000000000000D+00
    1.400000000000D+01 1.928125000000D+01 5.554874239952D-09-8.282854647971D-01
    9.480863809586D-07 1.547548524104D-02 4.651024937630D-06 5.153592706680D+03
    5.184000000000D+05 3.576278686523D-07-1.132498252412D+00 1.583248376846D-07
    9.334206034119D-01 2.740000000000D+02-2.581475333884D+00-8.667146735736D-09
   -6.643133856047D-11 1.000000000000D+00 1.539000000000D+03 0.000000000000D+00
    2.000000000000D+00 0.000000000000D+00-1.210719347000D-08 1.400000000000D+01
    5.112180000000D+05 4.000000000000D+00
16 09  7 11  0  0  0.0 3.399746492505D-05-3.637978807092D-12 0.000000000000D+00
    5.000000000000D+00-1.080000000000D+02 4.475543567211D-09-2.305234524488D+00
   -5.535781383514D-06 5.337337031960D-03 7.564201951027D-06 5.153583246231D+03
    5.184000000000D+05-1.210719347000D-07 3.061384492118D+00-9.313225746155D-09
    9.692249045877D-01 2.419062500000D+02-3.182993077238D-01-8.018548290436D-09
   -1.896507568581D-10 1.000000000000D+00 1.539000000000D+03 0.000000000000D+00
    2.000000000000D+00 0.000000000000D+00-9.778887033463D-09 5.000000000000D+00
    5.112180000000D+05 4.000000000000D+00
 8 09  7 11  0  0  0.0-2.112900838256D-04-1.705302565824D-12 0.000000000000D+00
    1.800000000000D+02 1.018750000000D+01 4.135172246522D-09-5.869088488465D-01
    4.786998033524D-07 1.071142475121D-02 2.535060048103D-06 5.153635156631D+03
    5.184000000000D+05 1.285225152969D-07 2.053277611003D+00-1.061707735062D-07
    9.889725577852D-01 3.405312500000D+02 2.996750161530D+00-8.182126532698D-09
    2.814402945465D-10 1.000000000000D+00 1.539000000000D+03 0.000000000000D+00
    4.000000000000D+00 0.000000000000D+00-3.725290298462D-09 1.800000000000D+02
    5.112180000000D+05 4.000000000000D+00
18 09  7 11  0  0  0.0-4.104757681489D-05 3.183231456205D-12 0.000000000000D+00
    1.070000000000D+02-2.162500000000D+01 4.711624829515D-09-2.110036806337D+00
   -1.130625605583D-06 1.066362648271D-02 8.653849363327D-06 5.153606912613D+03
    5.184000000000D+05 4.656612873077D-08-7.430589267012D-02-1.247972249985D-07
    9.420052290646D-01 2.031875000000D+02-2.407674074158D+00-7.942473693053D-09
   -4.314465429089D-10 1.000000000000D+00 1.539000000000D+03 0.000000000000D+00
    2.800000000000D+00 0.000000000000D+00-1.071020960808D-08 1.070000000000D+02
    5.112180000000D+05 4.000000000000D+00
15 09  7 11  0  0  0.0-3.074770793319D-04-2.614797267597D-12 0.000000000000D+00
    2.500000000000D+01 8.353125000000D+01 4.310536694013D-09 2.511136758011D+00
    4.256144165993D-06 1.473189215176D-03 8.946284651756D-06 5.153637395859D+03
    5.184000000000D+05 3.725290298462D-09 9.291379253641D-01-2.980232238770D-08
    9.562708074204D-01 2.039375000000D+02-4.782675154532D-01-7.931401803292D-09
    1.300054152474D-10 1.000000000000D+00 1.539000000000D+03 0.000000000000D+00
    2.000000000000D+00 0.000000000000D+00-9.778887033463D-09 2.500000000000D+01
    5.120520000000D+05 4.000000000000D+00
22 09  7 11  0  0  0.0 1.957193017006D-04-7.958078640513D-13 0.000000000000D+00
    1.800000000000D+01-1.956250000000D+01 4.778413325809D-09-3.136695488506D+00
   -1.007691025734D-06 5.160412867554D-03 8.819624781609D-06 5.153656827927D+03
    5.184000000000D+05 2.235174179077D-08-6.871448371977D-02 2.421438694000D-08
    9.396726881106D-01 1.976562500000D+02-1.895455755718D+00-8.016405344031D-09
   -5.157357681791D-10 1.000000000000D+00 1.539000000000D+03 0.000000000000D+00
    2.000000000000D+00 0.000000000000D+00-1.769512891769D-08 1.800000000000D+01
    5.135220000000D+05 4.000000000000D+00
28 09  7 11  0  0  0.0-2.587260678411D-05-1.136868377216D-13 0.000000000000D+00
    6.600000000000D+01-1.054687500000D+02 4.397326023422D-09-2.894076742461D+00
   -5.558133125305D-06 1.494574395474D-02 7.100403308868D-06 5.153654567719D+03
    5.184000000000D+05 2.533197402954D-07 3.069509384061D+00-2.142041921616D-07
    9.674293759910D-01 2.439687500000D+02-2.022772142476D+00-7.834969215060D-09
   -1.150047904111D-10 1.000000000000D+00 1.539000000000D+03 0.000000000000D+00
    2.800000000000D+00 0.000000000000D+00-1.071020960808D-08 6.600000000000D+01
    5.135220000000D+05 4.000000000000D+00
26 09  7 11  0  0  0.0 6.463285535574D-05 2.273736754432D-13 0.000000000000D+00
    5.400000000000D+01 8.306250000000D+01 3.524432521047D-09-5.899325410583D-03
    4.524365067482D-06 2.030553203076D-02 9.570270776749D-06 5.154908523560D+03
    5.184000000000D+05-1.266598701477D-07 1.000316390301D+00 3.632158041000D-07
    9.926040178501D-01 2.166875000000D+02 1.023514691278D+00-7.869970673011D-09
    2.578678840896D-10 1.000000000000D+00 1.539000000000D+03 0.000000000000D+00
    2.000000000000D+00 0.000000000000D+00-6.519258022308D-09 5.400000000000D+01
    5.181420000000D+05 4.000000000000D+00
